STARLINK-32447
1 61261U 24175U   26085.40750846 -.00000407  00000+0 -16079-5 0  9990
2 61261  53.1609 116.3504 0001355  84.1732 275.9424 15.30198281 84015
STARLINK-4289
1 53024U 22076AQ  26085.22457825  .00003144  00000+0  21569-3 0  9994
2 53024  53.2196   9.8944 0001568  66.6094 293.5063 15.08816223205480
STARLINK-32848
1 62808U 25018C   26085.37568804  .00025419  00000+0  86688-3 0  9991
2 62808  53.1594 232.0506 0001145 267.0585  93.0285 15.30219879 65727
STARLINK-4506
1 53554U 22101AD  26085.41872175  .00002156  00000+0  15349-3 0  9992
2 53554  53.2189 349.0296 0001393  87.8474 272.2677 15.08843019198830
STARLINK-34402
1 64446U 25130J   26085.51506237  .00017913  00000+0  61542-3 0  9996
2 64446  53.1602  10.0618 0001833  96.4941 263.6269 15.30201644 43284
STARLINK-35560
1 66059U 25235B   26085.42449111  .00011669  00000+0  40540-3 0  9998
2 66059  53.1594 167.5381 0001454  30.4046 329.7038 15.30207170 25484
STARLINK-31142
1 58779U 24011Q   26085.31952110 -.00001073  00000+0 -24105-4 0  9995
2 58779  53.1609 296.6180 0001362  90.1155 270.0002 15.30200965122813
STARLINK-3117
1 49435U 21104AD  26085.52865870  .00001599  00000+0  11847-3 0  9992
2 49435  53.2169 133.5293 0001295  85.1751 274.9389 15.08851118241459
STARLINK-1132
1 45044U 20006A   26085.41946128  .00060805  00000+0  12569-2 0  9994
2 45044  53.1544 174.5627 0003835 296.4487  63.6126 15.45260407339511
STARLINK-3639
1 51789U 22017X   26084.82299154  .00001338  00000+0  10215-3 0  9998
2 51789  53.2177 276.6967 0001456  88.0468 272.0691 15.08836028224714
STARLINK-35394
1 66023U 25232U   26085.11802132  .00022419  00000+0  76683-3 0  9990
2 66023  53.1598  27.3987 0001360  83.0025 277.1130 15.30197572 25956
STARLINK-1068
1 44772U 19074BM  26085.48074498  .00050813  00000+0  48857-3 0  9991
2 44772  53.0463  97.4679 0004626   9.1348 350.9750 15.66078147351476
STARLINK-33768
1 63454U 25069X   26085.26721947  .00023651  00000+0  80784-3 0  9999
2 63454  53.1642  65.4003 0001218  75.2156 284.8980 15.30210348 55940
STARLINK-34371
1 64756U 25147B   26085.50713911  .00037487  00000+0  12692-2 0  9995
2 64756  53.1564 164.8445 0001168 101.1565 258.9567 15.30257687 41271
STARLINK-4468
1 53969U 22125F   26085.45826162  .00005024  00000+0  33348-3 0  9993
2 53969  53.2165 148.8406 0001506  92.5313 267.5852 15.08843454191853
STARLINK-3631
1 51790U 22017Y   26085.53323851  .00001754  00000+0  12828-3 0  9995
2 51790  53.2159 273.5077 0000787 106.0913 254.0165 15.08833845226516
STARLINK-1556
1 46033U 20055G   26085.32426211  .00005473  00000+0  20176-3 0  9997
2 46033  53.1563  49.3440 0001548  74.8062 285.3110 15.29372442311419
STARLINK-5412
1 54806U 22175BA  26084.90757874  .00000338  00000+0  39339-4 0  9991
2 54806  53.2164 315.9100 0001389  85.4934 274.6216 15.08837984182584
STARLINK-11328 [DTC]
1 61880U 24204G   26083.96905331 -.00000443  00000+0  12058-5 0  9992
2 61880  53.1606 280.9984 0001165  79.6256 280.4893 15.69721955 79318
STARLINK-1464
1 45751U 20038X   26085.51701662  .00059978  00000+0  12302-2 0  9991
2 45751  53.0500 124.5043 0003725 353.4922   6.6035 15.45492036319250
STARLINK-3717
1 52096U 22029J   26085.46974269  .00003017  00000+0  20757-3 0  9999
2 52096  53.2207   3.7934 0001642  94.1383 265.9797 15.08837407223319
STARLINK-3363
1 51135U 22005AH  26085.40996880  .00000716  00000+0  63047-4 0  9996
2 51135  53.2156 223.9534 0001020  87.1484 272.9625 15.08836754231255
STARLINK-34072
1 64101U 25110F   26084.97774638  .00019016  00000+0  65211-3 0  9996
2 64101  53.1578 311.3035 0000971 114.1817 245.9286 15.30219739 48377
STARLINK-34881
1 65347U 25189AA  26085.52605248  .00048158  00000+0  16274-2 0  9990
2 65347  53.1599 128.6009 0001372  80.5398 279.5758 15.30202849 33699
STARLINK-33636
1 63379U 25063S   26085.41821651  .00020965  00000+0  71841-3 0  9998
2 63379  53.1635 334.5485 0000899 153.4663 206.6383 15.30180020 57278
STARLINK-1284
1 45390U 20019AG  26085.27926532  .00082466  00000+0  12229-2 0  9993
2 45390  53.0481  50.9926 0005116  79.3890 280.7695 15.54533334332803
STARLINK-33653
1 63380U 25063T   26085.11052479  .00026714  00000+0  91026-3 0  9996
2 63380  53.1586 336.1854 0001302  91.2123 268.9026 15.30220696 57227
STARLINK-35232
1 65518U 25198AC  26085.01894448  .00023737  00000+0  81095-3 0  9996
2 65518  53.1662 194.8959 0001657  84.3462 275.7728 15.30201564 31123
STARLINK-5169
1 54060U 22136K   26085.40944527  .00000613  00000+0  56569-4 0  9999
2 54060  53.2155 238.7209 0001237  86.0102 274.1032 15.08842769189792
STARLINK-3822
1 52287U 22041AC  26085.27930656 -.00001470  00000+0 -74280-4 0  9990
2 52287  53.2195  34.6441 0001390  97.3194 262.7956 15.08834822216871
STARLINK-32652
1 62234U 24231S   26085.37914417  .00022472  00000+0  76834-3 0  9993
2 62234  53.1589 142.1077 0001156 111.3522 248.7602 15.30209087 74319
STARLINK-5201
1 54076U 22136AB  26085.53282781 -.00000561  00000+0 -17178-4 0  9994
2 54076  53.2175 268.7123 0000377 337.6365  22.4611 15.08835197189388
STARLINK-3177
1 51138U 22005AL  26085.08518752 -.00000670  00000+0 -24003-4 0  9991
2 51138  53.2186 225.5162 0001408  90.1995 269.9159 15.08837678231206
STARLINK-1677
1 46576U 20070AW  26085.38529510  .00106849  00000+0  88650-3 0  9998
2 46576  53.0376  42.0248 0002883 123.2320 236.8973 15.69401290302862
STARLINK-1154
1 45198U 20012W   26085.54220335  .00068180  00000+0  12508-2 0  9997
2 45198  53.0475 289.4413 0005788 154.2077 205.9219 15.48655271337902
STARLINK-3560
1 51859U 22022H   26085.54706951 -.00001617  00000+0 -83533-4 0  9996
2 51859  53.2190 293.4554 0001442  90.4936 269.6222 15.08845160225707
STARLINK-3323
1 50804U 22001B   26085.31518785  .00001283  00000+0  98668-4 0  9995
2 50804  53.2166  84.4865 0001489  86.2917 273.8246 15.08838517233053
STARLINK-3983
1 52618U 22052W   26085.04378543  .00000480  00000+0  48261-4 0  9994
2 52618  53.2197 195.7021 0001430  93.5660 266.5496 15.08840828213450
STARLINK-1655
1 47623U 21012D   26085.17192993  .00098181  00000+0  87139-3 0  9997
2 47623  53.0401 245.0224 0006664 336.1193  23.9512 15.67772529284056
STARLINK-36251
1 68093U 26042AA  26085.36741376  .00193545  00000+0  96097-3 0  9998
2 68093  53.1579 110.9743 0001220  45.5677 314.5445 15.80903218  4717
STARLINK-4618
1 53735U 22107AM  26085.43246545 -.00000596  00000+0 -19328-4 0  9997
2 53735  53.2189 188.7704 0001283 104.9890 255.1244 15.08843006196973
STARLINK-2356
1 47896U 21021AN  26085.31809420  .00007463  00000+0  26399-3 0  9999
2 47896  53.1574 203.7495 0001628  87.5577 272.5610 15.30184490278563
STARLINK-2084
1 47368U 21005V   26085.58334490  .00054481  00000+0  18403-2 0  9992
2 47368  53.1588 344.0377 0001435  92.7032  57.7191 15.30162110  5784
STARLINK-5243
1 54167U 22141L   26084.87401857 -.00001352  00000+0 -66874-4 0  9990
2 54167  53.2192 301.2467 0001502  92.5134 267.6030 15.08837238188165
STARLINK-35912
1 66882U 25283E   26084.91184888  .00020111  00000+0  68915-3 0  9993
2 66882  53.1567 309.1185 0001024  85.5332 274.5786 15.30207051 18326
STARLINK-32040
1 60109U 24117U   26084.96710385  .00000235  00000+0  20051-4 0  9991
2 60109  53.1629 321.1630 0001408  90.3879 269.7284 15.30199239 99388
STARLINK-31007
1 58889U 24020P   26085.43104426 -.00000413  00000+0 -18213-5 0  9990
2 58889  53.1574 244.7006 0001455  90.5402 269.5765 15.30195416120630
STARLINK-4081
1 52660U 22053E   26085.24757662  .00002277  00000+0  16115-3 0  9995
2 52660  53.2165  79.7876 0001333  90.4618 269.6527 15.08829458213615
STARLINK-30430
1 57849U 23141K   26084.60348220  .00000612  00000+0  32789-4 0  9990
2 57849  53.1620 210.2663 0000365  20.7711 339.3304 15.30192573142765
STARLINK-32221
1 60342U 24136P   26085.46503320 -.00000632  00000+0 -92213-5 0  9999
2 60342  53.1633 357.6953 0001236  92.1244 267.9898 15.30187310 92234
